[{"OBJECT_NAME":"KUIPER-00183","OBJECT_ID":"2025-301F","EPOCH":"2026-03-09T22:00:01.999584","MEAN_MOTION":15.28555387,"ECCENTRICITY":0.00143222,"INCLINATION":51.8667,"RA_OF_ASC_NODE":65.0366,"ARG_OF_PERICENTER":58.1585,"MEAN_ANOMALY":99.3056,"EPHEMERIS_TYPE":0,"CLASSIFICATION_TYPE":"U","NORAD_CAT_ID":67138,"ELEMENT_SET_NO":999,"REV_AT_EPOCH":583,"BSTAR":-0.054814766,"MEAN_MOTION_DOT":-0.01408357,"MEAN_MOTION_DDOT":0},{"OBJECT_NAME":"SL-3 R\/B","OBJECT_ID":"1981-103B","EPOCH":"2026-03-09T21:41:31.338816","MEAN_MOTION":15.21379038,"ECCENTRICITY":0.00124427,"INCLINATION":81.1587,"RA_OF_ASC_NODE":213.1807,"ARG_OF_PERICENTER":286.2286,"MEAN_ANOMALY":73.7576,"EPHEMERIS_TYPE":0,"CLASSIFICATION_TYPE":"U","NORAD_CAT_ID":12904,"ELEMENT_SET_NO":999,"REV_AT_EPOCH":97326,"BSTAR":0.00027179641,"MEAN_MOTION_DOT":6.129e-5,"MEAN_MOTION_DDOT":0}]
